CCSDS_OMM_VERS = 2.0
CREATION_DATE  = 
ORIGINATOR     = 

OBJECT_NAME    = STARLINK-37020
OBJECT_ID      = 2026-049C
CENTER_NAME    = EARTH
REF_FRAME      = TEME
TIME_SYSTEM    = UTC
MEAN_ELEMENT_THEORY = SGP/SGP4

EPOCH          = 2026-03-26T06:00:02.000160
MEAN_MOTION    = 15.80809277
ECCENTRICITY   = .00009155
INCLINATION    = 97.2839
RA_OF_ASC_NODE = 105.2924
ARG_OF_PERICENTER = 102.5459
MEAN_ANOMALY   = 265.6625

EPHEMERIS_TYPE = 0
CLASSIFICATION_TYPE = U
NORAD_CAT_ID   = 68144
ELEMENT_SET_NO = 999
REV_AT_EPOCH   = 328
BSTAR          = -.16663619E-3
MEAN_MOTION_DOT = -.31933E-3
MEAN_MOTION_DDOT = 0

CCSDS_OMM_VERS = 2.0
CREATION_DATE  = 
ORIGINATOR     = 

OBJECT_NAME    = STARLINK-36244
OBJECT_ID      = 2026-049D
CENTER_NAME    = EARTH
REF_FRAME      = TEME
TIME_SYSTEM    = UTC
MEAN_ELEMENT_THEORY = SGP/SGP4

EPOCH          = 2026-03-26T12:00:01.999296
MEAN_MOTION    = 15.81037468
ECCENTRICITY   = .0001157
INCLINATION    = 97.2839
RA_OF_ASC_NODE = 105.5588
ARG_OF_PERICENTER = 108.3900
MEAN_ANOMALY   = 250.0684

EPHEMERIS_TYPE = 0
CLASSIFICATION_TYPE = U
NORAD_CAT_ID   = 68145
ELEMENT_SET_NO = 999
REV_AT_EPOCH   = 333
BSTAR          = -.36261E-2
MEAN_MOTION_DOT = -.651807E-2
MEAN_MOTION_DDOT = 0

CCSDS_OMM_VERS = 2.0
CREATION_DATE  = 
ORIGINATOR     = 

OBJECT_NAME    = STARLINK-36980
OBJECT_ID      = 2026-049E
CENTER_NAME    = EARTH
REF_FRAME      = TEME
TIME_SYSTEM    = UTC
MEAN_ELEMENT_THEORY = SGP/SGP4

EPOCH          = 2026-03-26T12:00:01.999296
MEAN_MOTION    = 15.80752396
ECCENTRICITY   = .0001713
INCLINATION    = 97.2842
RA_OF_ASC_NODE = 105.5583
ARG_OF_PERICENTER = 123.1951
MEAN_ANOMALY   = 231.0353

EPHEMERIS_TYPE = 0
CLASSIFICATION_TYPE = U
NORAD_CAT_ID   = 68146
ELEMENT_SET_NO = 999
REV_AT_EPOCH   = 332
BSTAR          = .97251E-3
MEAN_MOTION_DOT = .189697E-2
MEAN_MOTION_DDOT = 0

CCSDS_OMM_VERS = 2.0
CREATION_DATE  = 
ORIGINATOR     = 

OBJECT_NAME    = STARLINK-37055
OBJECT_ID      = 2026-049F
CENTER_NAME    = EARTH
REF_FRAME      = TEME
TIME_SYSTEM    = UTC
MEAN_ELEMENT_THEORY = SGP/SGP4

EPOCH          = 2026-03-26T12:00:01.999296
MEAN_MOTION    = 15.80759223
ECCENTRICITY   = .0001381
INCLINATION    = 97.2842
RA_OF_ASC_NODE = 105.5542
ARG_OF_PERICENTER = 117.4542
MEAN_ANOMALY   = 228.2446

EPHEMERIS_TYPE = 0
CLASSIFICATION_TYPE = U
NORAD_CAT_ID   = 68147
ELEMENT_SET_NO = 999
REV_AT_EPOCH   = 332
BSTAR          = .78906E-3
MEAN_MOTION_DOT = .153286E-2
MEAN_MOTION_DDOT = 0

CCSDS_OMM_VERS = 2.0
CREATION_DATE  = 
ORIGINATOR     = 

OBJECT_NAME    = STARLINK-36981
OBJECT_ID      = 2026-049G
CENTER_NAME    = EARTH
REF_FRAME      = TEME
TIME_SYSTEM    = UTC
MEAN_ELEMENT_THEORY = SGP/SGP4

EPOCH          = 2026-03-26T12:00:01.999296
MEAN_MOTION    = 15.80724192
ECCENTRICITY   = .0001539
INCLINATION    = 97.2842
RA_OF_ASC_NODE = 105.5614
ARG_OF_PERICENTER = 107.4797
MEAN_ANOMALY   = 255.3212

EPHEMERIS_TYPE = 0
CLASSIFICATION_TYPE = U
NORAD_CAT_ID   = 68148
ELEMENT_SET_NO = 999
REV_AT_EPOCH   = 332
BSTAR          = .11566E-2
MEAN_MOTION_DOT = .226305E-2
MEAN_MOTION_DDOT = 0

CCSDS_OMM_VERS = 2.0
CREATION_DATE  = 
ORIGINATOR     = 

OBJECT_NAME    = STARLINK-36992
OBJECT_ID      = 2026-049H
CENTER_NAME    = EARTH
REF_FRAME      = TEME
TIME_SYSTEM    = UTC
MEAN_ELEMENT_THEORY = SGP/SGP4

EPOCH          = 2026-03-26T12:00:01.999296
MEAN_MOTION    = 15.80793044
ECCENTRICITY   = .0000893
INCLINATION    = 97.2841
RA_OF_ASC_NODE = 105.5631
ARG_OF_PERICENTER = 72.4335
MEAN_ANOMALY   = 294.5973

EPHEMERIS_TYPE = 0
CLASSIFICATION_TYPE = U
NORAD_CAT_ID   = 68149
ELEMENT_SET_NO = 999
REV_AT_EPOCH   = 332
BSTAR          = .80006E-3
MEAN_MOTION_DOT = .155707E-2
MEAN_MOTION_DDOT = 0

CCSDS_OMM_VERS = 2.0
CREATION_DATE  = 
ORIGINATOR     = 

OBJECT_NAME    = STARLINK-37060
OBJECT_ID      = 2026-049J
CENTER_NAME    = EARTH
REF_FRAME      = TEME
TIME_SYSTEM    = UTC
MEAN_ELEMENT_THEORY = SGP/SGP4

EPOCH          = 2026-03-26T12:00:01.999296
MEAN_MOTION    = 15.80794924
ECCENTRICITY   = .0001271
INCLINATION    = 97.2843
RA_OF_ASC_NODE = 105.5651
ARG_OF_PERICENTER = 74.7738
MEAN_ANOMALY   = 296.5374

EPHEMERIS_TYPE = 0
CLASSIFICATION_TYPE = U
NORAD_CAT_ID   = 68150
ELEMENT_SET_NO = 999
REV_AT_EPOCH   = 332
BSTAR          = .60954E-3
MEAN_MOTION_DOT = .118093E-2
MEAN_MOTION_DDOT = 0

CCSDS_OMM_VERS = 2.0
CREATION_DATE  = 
ORIGINATOR     = 

OBJECT_NAME    = STARLINK-37073
OBJECT_ID      = 2026-049K
CENTER_NAME    = EARTH
REF_FRAME      = TEME
TIME_SYSTEM    = UTC
MEAN_ELEMENT_THEORY = SGP/SGP4

EPOCH          = 2026-03-26T12:00:01.999296
MEAN_MOTION    = 15.80746367
ECCENTRICITY   = .0001222
INCLINATION    = 97.2842
RA_OF_ASC_NODE = 105.5665
ARG_OF_PERICENTER = 114.3817
MEAN_ANOMALY   = 261.2222

EPHEMERIS_TYPE = 0
CLASSIFICATION_TYPE = U
NORAD_CAT_ID   = 68151
ELEMENT_SET_NO = 999
REV_AT_EPOCH   = 332
BSTAR          = .10426E-2
MEAN_MOTION_DOT = .203639E-2
MEAN_MOTION_DDOT = 0

CCSDS_OMM_VERS = 2.0
CREATION_DATE  = 
ORIGINATOR     = 

OBJECT_NAME    = STARLINK-37049
OBJECT_ID      = 2026-049L
CENTER_NAME    = EARTH
REF_FRAME      = TEME
TIME_SYSTEM    = UTC
MEAN_ELEMENT_THEORY = SGP/SGP4

EPOCH          = 2026-03-26T12:00:01.999296
MEAN_MOTION    = 15.80701189
ECCENTRICITY   = .0001262
INCLINATION    = 97.2842
RA_OF_ASC_NODE = 105.5684
ARG_OF_PERICENTER = 98.8177
MEAN_ANOMALY   = 281.0940

EPHEMERIS_TYPE = 0
CLASSIFICATION_TYPE = U
NORAD_CAT_ID   = 68152
ELEMENT_SET_NO = 999
REV_AT_EPOCH   = 332
BSTAR          = .12018E-2
MEAN_MOTION_DOT = .235131E-2
MEAN_MOTION_DDOT = 0

CCSDS_OMM_VERS = 2.0
CREATION_DATE  = 
ORIGINATOR     = 

OBJECT_NAME    = STARLINK-37072
OBJECT_ID      = 2026-049M
CENTER_NAME    = EARTH
REF_FRAME      = TEME
TIME_SYSTEM    = UTC
MEAN_ELEMENT_THEORY = SGP/SGP4

EPOCH          = 2026-03-26T12:00:01.999296
MEAN_MOTION    = 15.80761358
ECCENTRICITY   = .0001382
INCLINATION    = 97.2842
RA_OF_ASC_NODE = 105.5698
ARG_OF_PERICENTER = 109.0212
MEAN_ANOMALY   = 275.1268

EPHEMERIS_TYPE = 0
CLASSIFICATION_TYPE = U
NORAD_CAT_ID   = 68153
ELEMENT_SET_NO = 999
REV_AT_EPOCH   = 332
BSTAR          = .86925E-3
MEAN_MOTION_DOT = .169207E-2
MEAN_MOTION_DDOT = 0

CCSDS_OMM_VERS = 2.0
CREATION_DATE  = 
ORIGINATOR     = 

OBJECT_NAME    = STARLINK-36241
OBJECT_ID      = 2026-049N
CENTER_NAME    = EARTH
REF_FRAME      = TEME
TIME_SYSTEM    = UTC
MEAN_ELEMENT_THEORY = SGP/SGP4

EPOCH          = 2026-03-26T12:00:01.999296
MEAN_MOTION    = 15.79482379
ECCENTRICITY   = .0001438
INCLINATION    = 97.2842
RA_OF_ASC_NODE = 105.5725
ARG_OF_PERICENTER = 79.0501
MEAN_ANOMALY   = 312.8758

EPHEMERIS_TYPE = 0
CLASSIFICATION_TYPE = U
NORAD_CAT_ID   = 68154
ELEMENT_SET_NO = 999
REV_AT_EPOCH   = 333
BSTAR          = -.12116E-1
MEAN_MOTION_DOT = -.1906869E-1
MEAN_MOTION_DDOT = 0

CCSDS_OMM_VERS = 2.0
CREATION_DATE  = 
ORIGINATOR     = 

OBJECT_NAME    = STARLINK-37048
OBJECT_ID      = 2026-049P
CENTER_NAME    = EARTH
REF_FRAME      = TEME
TIME_SYSTEM    = UTC
MEAN_ELEMENT_THEORY = SGP/SGP4

EPOCH          = 2026-03-26T12:00:01.999296
MEAN_MOTION    = 15.80770909
ECCENTRICITY   = .0000911
INCLINATION    = 97.2844
RA_OF_ASC_NODE = 105.5772
ARG_OF_PERICENTER = 115.7995
MEAN_ANOMALY   = 285.4312

EPHEMERIS_TYPE = 0
CLASSIFICATION_TYPE = U
NORAD_CAT_ID   = 68155
ELEMENT_SET_NO = 999
REV_AT_EPOCH   = 332
BSTAR          = .97851E-3
MEAN_MOTION_DOT = .191057E-2
MEAN_MOTION_DDOT = 0

CCSDS_OMM_VERS = 2.0
CREATION_DATE  = 
ORIGINATOR     = 

OBJECT_NAME    = STARLINK-36313
OBJECT_ID      = 2026-049Q
CENTER_NAME    = EARTH
REF_FRAME      = TEME
TIME_SYSTEM    = UTC
MEAN_ELEMENT_THEORY = SGP/SGP4

EPOCH          = 2026-03-26T12:00:01.999296
MEAN_MOTION    = 15.80766189
ECCENTRICITY   = .0001132
INCLINATION    = 97.2846
RA_OF_ASC_NODE = 105.5745
ARG_OF_PERICENTER = 130.4933
MEAN_ANOMALY   = 266.4664

EPHEMERIS_TYPE = 0
CLASSIFICATION_TYPE = U
NORAD_CAT_ID   = 68156
ELEMENT_SET_NO = 999
REV_AT_EPOCH   = 333
BSTAR          = .10034E-2
MEAN_MOTION_DOT = .195996E-2
MEAN_MOTION_DDOT = 0

CCSDS_OMM_VERS = 2.0
CREATION_DATE  = 
ORIGINATOR     = 

OBJECT_NAME    = STARLINK-37064
OBJECT_ID      = 2026-049R
CENTER_NAME    = EARTH
REF_FRAME      = TEME
TIME_SYSTEM    = UTC
MEAN_ELEMENT_THEORY = SGP/SGP4

EPOCH          = 2026-03-26T12:00:01.999296
MEAN_MOTION    = 15.80728655
ECCENTRICITY   = .0000594
INCLINATION    = 97.2842
RA_OF_ASC_NODE = 105.5710
ARG_OF_PERICENTER = 98.2310
MEAN_ANOMALY   = 290.2236

EPHEMERIS_TYPE = 0
CLASSIFICATION_TYPE = U
NORAD_CAT_ID   = 68157
ELEMENT_SET_NO = 999
REV_AT_EPOCH   = 332
BSTAR          = .1026E-2
MEAN_MOTION_DOT = .200164E-2
MEAN_MOTION_DDOT = 0

CCSDS_OMM_VERS = 2.0
CREATION_DATE  = 
ORIGINATOR     = 

OBJECT_NAME    = STARLINK-37069
OBJECT_ID      = 2026-049S
CENTER_NAME    = EARTH
REF_FRAME      = TEME
TIME_SYSTEM    = UTC
MEAN_ELEMENT_THEORY = SGP/SGP4

EPOCH          = 2026-03-26T12:00:01.999296
MEAN_MOTION    = 15.80089568
ECCENTRICITY   = .0001239
INCLINATION    = 97.2836
RA_OF_ASC_NODE = 105.5794
ARG_OF_PERICENTER = 99.5379
MEAN_ANOMALY   = 310.0084

EPHEMERIS_TYPE = 0
CLASSIFICATION_TYPE = U
NORAD_CAT_ID   = 68158
ELEMENT_SET_NO = 999
REV_AT_EPOCH   = 332
BSTAR          = -.11742E-1
MEAN_MOTION_DOT = -.1900847E-1
MEAN_MOTION_DDOT = 0

